[{"OBJECT_NAME":"STARLINK-11318 [DTC]","OBJECT_ID":"2024-175K","EPOCH":"2026-03-09T22:45:09.655488","MEAN_MOTION":15.69702462,"ECCENTRICITY":0.00012456,"INCLINATION":53.1586,"RA_OF_ASC_NODE":55.2418,"ARG_OF_PERICENTER":67.6256,"MEAN_ANOMALY":292.4893,"EPHEMERIS_TYPE":0,"CLASSIFICATION_TYPE":"U","NORAD_CAT_ID":61252,"ELEMENT_SET_NO":999,"REV_AT_EPOCH":8457,"BSTAR":-1.5766358e-5,"MEAN_MOTION_DOT":-2.498e-5,"MEAN_MOTION_DDOT":0},{"OBJECT_NAME":"DELTA 2 R\/B(1)","OBJECT_ID":"1990-008B","EPOCH":"2026-03-09T08:59:25.462464","MEAN_MOTION":15.55957726,"ECCENTRICITY":0.00854397,"INCLINATION":35.6039,"RA_OF_ASC_NODE":176.922,"ARG_OF_PERICENTER":255.8292,"MEAN_ANOMALY":103.2939,"EPHEMERIS_TYPE":0,"CLASSIFICATION_TYPE":"U","NORAD_CAT_ID":20453,"ELEMENT_SET_NO":999,"REV_AT_EPOCH":92608,"BSTAR":0.00075711194,"MEAN_MOTION_DOT":0.00064698,"MEAN_MOTION_DDOT":0}]
